AMC-18                  
1 29644U 06054B   22135.31153094 -.00000204  00000+0  00000+0 0  9994
2 29644   0.0136 356.5641 0002760  58.8367 206.7743  1.00271486 56569
SKYNET 5A               
1 30794U 07007B   22135.35882668 -.00000260  00000+0  00000+0 0  9993
2 30794   2.0165  88.5760 0003510 317.3567  51.5335  1.00272941 55721
ANIK F3                 
1 31102U 07009A   22135.58600927  .00000010  00000+0  00000+0 0  9992
2 31102   0.0127 341.9414 0002584  76.7320 266.8741  1.00271536 31585
ASTRA 1L                
1 31306U 07016A   22135.33521532  .00000131  00000+0  00000+0 0  9997
2 31306   0.0354   0.9052 0003055   5.8076   6.1757  1.00273322 30034
GALAXY 17 (G-17)        
1 31307U 07016B   22135.30234229 -.00000163  00000+0  00000+0 0  9995
2 31307   0.0366  29.3415 0002672  22.0611 199.4606  1.00271113 54824
ZHONGXING-6B            
1 31800U 07031A   22135.57765222 -.00000351  00000+0  00000+0 0  9990
2 31800   0.0073 316.5457 0004067 103.1630 137.0329  1.00267322 54452
DIRECTV 10              
1 31862U 07032A   22135.60614874 -.00000092  00000+0  00000+0 0  9991
2 31862   0.0116  68.9281 0000101 338.6706 301.1409  1.00270276 30612
SPACEWAY 3              
1 32018U 07036A   22135.36367814 -.00000140  00000+0  00000+0 0  9995
2 32018   0.1400  84.1640 0000168 310.8154 234.0695  1.00270988 31571
BSAT-3A                 
1 32019U 07036B   22135.56628674 -.00000339  00000+0  00000+0 0  9992
2 32019   0.0308 197.9913 0000601 331.6913  17.3094  1.00272248 35547
OPTUS D2                
1 32252U 07044A   22135.55104802 -.00000172  00000+0  00000+0 0  9996
2 32252   0.0486  96.5353 0003797 314.4895 172.6173  1.00271971 53592
INTELSAT 11 (IS-11)     
1 32253U 07044B   22135.14960756 -.00000257  00000+0  00000+0 0  9994
2 32253   0.0095 342.6782 0001929  72.2078 188.8549  1.00270517 53510
WGS F1 (USA 195)        
1 32258U 07046A   22135.22410743  .00000053  00000+0  00000+0 0  9999
2 32258   0.0174 324.9902 0000712 146.8901 207.7555  1.00270977 37365
STAR ONE C1             
1 32293U 07056A   22135.29979799 -.00000167  00000+0  00000+0 0  9994
2 32293   0.8807  92.9626 0008359 184.8884  60.5980  0.99067869   589
SKYNET 5B               
1 32294U 07056B   22135.28313206  .00000153  00000+0  00000+0 0  9993
2 32294   1.4452  89.4428 0003949 317.5590 313.0163  1.00270591 53211
ASTRA 4A (SIRIUS 4)     
1 32299U 07057A   22135.34077241  .00000044  00000+0  00000+0 0  9991
2 32299   0.0205   9.1224 0003116  48.2927 303.1198  1.00271493 36691
HORIZONS-2              
1 32388U 07063B   22135.36438109 -.00000172  00000+0  00000+0 0  9996
2 32388   0.0331  60.1156 0003022 353.3110  35.6758  1.00271833 52843
THURAYA-3               
1 32404U 08001A   22135.22005281 -.00000292  00000+0  00000+0 0  9997
2 32404   4.0380  22.6360 0003030  37.9578 350.0791  1.00269767 52510
EXPRESS-AM33            
1 32478U 08003A   22135.24077069 -.00000077  00000+0  00000+0 0  9996
2 32478   0.9741  93.2230 0001484  30.1100 185.2118  1.00271735 38753
THOR 5                  
1 32487U 08006A   22135.19563193  .00000003  00000+0  00000+0 0  9999
2 32487   0.0194 266.7518 0002575 145.3013 250.5383  1.00272565 52327
AMC-14                  
1 32708U 08011A   22134.91993876  .00000081  00000+0  00000+0 0  9991
2 32708  22.0218  38.6018 0043686   3.8646 179.2599  1.00274319 53172
DIRECTV 11              
1 32729U 08013A   22135.29311576 -.00000114  00000+0  00000+0 0  9997
2 32729   0.0485  97.3007 0000162 280.2986 221.7496  1.00271555 30619
ICO G1                  
1 32763U 08016A   22135.30050417 -.00000161  00000+0  00000+0 0  9996
2 32763   3.9981  25.8470 0002094  32.3329 190.1511  1.00271084 51564
VINASAT-1               
1 32767U 08018A   22135.54910413 -.00000317  00000+0  00000+0 0  9992
2 32767   0.0224  24.3092 0001804  48.4811 130.1075  1.00273333 51627
STAR ONE C2             
1 32768U 08018B   22135.33143760 -.00000265  00000+0  00000+0 0  9995
2 32768   0.0616  68.2889 0002710 352.2390 226.8421  1.00272121 51698
AMOS-3                  
1 32794U 08022A   22135.06987059 -.00000024  00000+0  00000+0 0  9999
2 32794   0.0107 294.7605 0003151 118.8773 200.1577  1.00271097 67364
GALAXY 18 (G-18)        
1 32951U 08024A   22135.58086944  .00000036  00000+0  00000+0 0  9998
2 32951   0.0159 313.2811 0003536 114.7952 251.3176  1.00272540 30876
CHINASAT 9 (ZX 9)       
1 33051U 08028A   22135.56585792 -.00000237  00000+0  00000+0 0  9991
2 33051   0.0173 298.4223 0004408 127.8564 102.9088  1.00272680 51060
SKYNET 5C               
1 33055U 08030A   22135.24632803 -.00000128  00000+0  00000+0 0  9998
2 33055   0.0692  23.1549 0003988  34.8215 245.8765  1.00271320 50974
TURKSAT 3A              
1 33056U 08030B   22135.17896652  .00000157  00000+0  00000+0 0  9996
2 33056   0.0194  87.8225 0005410 353.4949 257.9680  1.00270727 37375
INTELSAT 25 (IS-25)     
1 33153U 08034A   22135.25743696 -.00000212  00000+0  00000+0 0  9999
2 33153   0.0134  98.2679 0003084 325.6090 230.2602  1.00269207 50711
BADR-6                  
1 33154U 08034B   22135.21091149  .00000156  00000+0  00000+0 0  9991
2 33154   0.0750  63.7900 0007174   2.9378 268.1155  1.00272722 50773
ECHOSTAR 11             
1 33207U 08035A   22135.59765839 -.00000045  00000+0  00000+0 0  9994
2 33207   0.0438  99.5453 0002804 307.0672 291.8510  1.00271516 36251
SUPERBIRD-C2            
1 33274U 08038A   22135.61410559 -.00000240  00000+0  00000+0 0  9997
2 33274   0.0050 101.3070 0002175 332.7356 164.2997  1.00269577 90758
AMC-21                  
1 33275U 08038B   22135.50820438  .00000047  00000+0  00000+0 0  9991
2 33275   0.0309  42.5942 0002663   9.3805 239.2956  1.00271284 50514
INMARSAT 4-F3           
1 33278U 08039A   22135.61128792 -.00000130  00000+0  00000+0 0  9995
2 33278   3.2998  19.6843 0002683  41.2625 294.4120  1.00271617 31568
NIMIQ 4                 
1 33373U 08044A   22135.31306219 -.00000209  00000+0  00000+0 0  9993
2 33373   0.0061  20.7976 0002399  26.4178 216.5143  1.00271623 50009
GALAXY 19 (G-19)        
1 33376U 08045A   22135.61286058 -.00000128  00000+0  00000+0 0  9998
2 33376   0.0109 335.4577 0003427  90.2887 291.2147  1.00271686 49929
ASTRA 1M                
1 33436U 08057A   22135.21091149  .00000131  00000+0  00000+0 0  9992
2 33436   0.0710  98.7771 0004145 354.3162 234.9651  1.00272595 30741
CIEL-2                  
1 33453U 08063A   22135.57425814  .00000069  00000+0  00000+0 0  9997
2 33453   0.0492 114.0855 0003172 313.2430 243.8386  1.00271109 49152
EUTELSAT HOTBIRD 13C    
1 33459U 08065A   22135.28868914  .00000099  00000+0  00000+0 0  9998
2 33459   0.0828  68.0536 0005953   1.0226 280.8584  1.00272995 32369
EUTELSAT 48D            
1 33460U 08065B   22135.24077069 -.00000088  00000+0  00000+0 0  9998
2 33460   1.3780  92.8886 0003768 328.3373 245.9349  1.00271300 48979
FENGYUN 2E              
1 33463U 08066A   22134.80408933 -.00000194  00000+0  00000+0 0  9999
2 33463   5.8323  65.4915 0003901   6.7875 176.5147  1.00272598 49107
EXPRESS-AM44            
1 33595U 09007A   22134.57896668 -.00000077  00000+0  00000+0 0  9991
2 33595   0.0197 267.3761 0000258 227.9465 294.4115  1.00271855 48575
NSS-9                   
1 33749U 09008A   22135.58192406  .00000082  00000+0  00000+0 0  9999
2 33749   0.0184 352.4298 0002341  67.5571 205.8624  1.00269734 48556
EUTELSAT 33E            
1 33750U 09008B   22135.28313206  .00000167  00000+0  00000+0 0  9995
2 33750   0.0587  10.4356 0003990  39.2494 318.3196  1.00270761 48468
TELSTAR 11N             
1 34111U 09009A   22135.25188238 -.00000239  00000+0  00000+0 0  9991
2 34111   0.0199 301.0719 0001780  96.8338 248.2089  1.00272445 31254
EUTELSAT 10A            
1 34710U 09016A   22135.38452253  .00000079  00000+0  00000+0 0  9990
2 34710   0.0582   9.0616 0005442  43.3073 329.1375  1.00270920 47999
WGS F2 (USA 204)        
1 34713U 09017A   22135.60560865  .00000079  00000+0  00000+0 0  9998
2 34713   0.0139 292.7538 0000470 135.9629  80.0990  1.00271684 30643
SES-7 (PROTOSTAR 2)     
1 34941U 09027A   22135.45049381 -.00000334  00000+0  00000+0 0  9995
2 34941   0.0707  90.8247 0001084 281.0614 131.7040  1.00269616 47640
MEASAT-3A               
1 35362U 09032A   22135.60284793 -.00000231  00000+0  00000+0 0  9990
2 35362   0.0435 136.6791 0000756 344.0019  61.1675  1.00270868 47273
GOES 14                 
1 35491U 09033A   22135.60447059 -.00000081  00000+0  00000+0 0  9993
2 35491   0.2427  94.4599 0011307 120.7480 131.1971  1.00270680 47135
FM-5                    
1 35493U 09034A   22135.30847156 -.00000189  00000+0  00000+0 0  9994
2 35493   0.0136 306.3818 0000734 104.5513 206.9953  1.00272124 46999
TERRESTAR-1             
1 35496U 09035A   22135.59576892 -.00000046  00000+0  00000+0 0  9997
2 35496   3.1559  37.9078 0002728  14.3933 284.4597  1.00272112 47150
ASIASAT 5               
1 35696U 09042A   22135.45049381 -.00000297  00000+0  00000+0 0  9998
2 35696   0.0243 120.4848 0001576 271.2560 104.0835  1.00274225 46711
JCSAT-12 (JCSAT-RA)     
1 35755U 09044A   22135.56646679 -.00000317  00000+0  00000+0 0  9994
2 35755   0.0135 244.5784 0001267  95.7112 228.9625  1.00270424 46634
OPTUS D3                
1 35756U 09044B   22135.48709397 -.00000136  00000+0  00000+0 0  9992
2 35756   0.0557  58.4357 0004225 344.6091 161.5010  1.00270800 46582
NIMIQ 5                 
1 35873U 09050A   22135.32377535 -.00000245  00000+0  00000+0 0  9998
2 35873   0.0255  74.8877 0003522   5.1656 196.8316  1.00269688 46370
AMAZONAS 2              
1 35942U 09054A   22134.55324191 -.00000270  00000+0  00000+0 0  9991
2 35942   0.0201 121.3922 0004520 328.6130 280.4285  1.00271795 46193
COMSATBW-1              
1 35943U 09054B   22135.24215971  .00000036  00000+0  00000+0 0  9993
2 35943   0.0222  67.2983 0003392   5.7278 310.1148  1.00268783 46321
